NORAD_CAT_ID,OBJECT_NAME,OBJECT_TYPE,EPOCH,MEAN_MOTION,ECCENTRICITY,INCLINATION,RA_OF_ASC_NODE,ARG_OF_PERICENTER,MEAN_ANOMALY,BSTAR,MEAN_MOTION_DOT,MEAN_MOTION_DDOT,TLE_LINE0,TLE_LINE1,TLE_LINE2,SEMIMAJOR_AXIS,PERIOD,APOGEE,PERIGEE,DECAYED
51744.0,STARLINK-3452,PAYLOAD,2023-10-09 08:54:29,15.08847059,0.0001396,53.2161,320.0301,87.7637,272.3515,0.001159,0.00018209,0.0,0 STARLINK-3452,1 51744U 22016AG  23282.37117519  .00018209  00000-0  11590-2 0  9991,2 51744  53.2161 320.0301 0001396  87.7637 272.3515 15.08847059 91425,6917.859,95.437,540.69,538.758,0.0
51744.0,STARLINK-3452,PAYLOAD,2023-10-10 02:23:44,15.08848005,0.0001687,53.2159,316.7594,95.0993,265.0192,0.00057729,8.913e-05,0.0,0 STARLINK-3452,1 51744U 22016AG  23283.09981499  .00008913  00000-0  57729-3 0  9993,2 51744  53.2159 316.7594 0001687  95.0993 265.0192 15.08848005 91532,6917.856,95.437,540.888,538.554,0.0
51744.0,STARLINK-3452,PAYLOAD,2023-10-10 08:45:16,15.08851624,0.0001458,53.2155,315.5699,87.6892,272.4267,0.00037061,5.617e-05,0.0,0 STARLINK-3452,1 51744U 22016AG  23283.36477263  .00005617  00000-0  37061-3 0  9997,2 51744  53.2155 315.5699 0001458  87.6892 272.4267 15.08851624 90515,6917.845,95.437,540.718,538.701,0.0
51744.0,STARLINK-3452,PAYLOAD,2023-10-10 13:31:25,15.08862055,0.000155,53.2164,314.6775,90.4217,269.6953,0.00057224,8.836e-05,0.0,0 STARLINK-3452,1 51744U 22016AG  23283.56348821  .00008836  00000-0  57224-3 0  9995,2 51744  53.2164 314.6775 0001550  90.4217 269.6953 15.08862055 90549,6917.813,95.436,540.75,538.606,0.0
51744.0,STARLINK-3452,PAYLOAD,2023-10-11 02:14:31,15.08834387,0.0001997,53.2152,312.2988,92.0017,268.1204,-3.1633e-05,-7.92e-06,0.0,0 STARLINK-3452,1 51744U 22016AG  23284.09341811 -.00000792  00000-0 -31633-4 0  9998,2 51744  53.2152 312.2988 0001997  92.0017 268.1204 15.08834387 91683,6917.898,95.438,541.144,538.381,0.0
51744.0,STARLINK-3452,PAYLOAD,2023-10-11 08:36:04,15.08835496,0.0001709,53.217,311.1103,85.3507,274.768,5.8912e-05,6.5e-06,0.0,0 STARLINK-3452,1 51744U 22016AG  23284.35838028  .00000650  00000-0  58912-4 0  9998,2 51744  53.2170 311.1103 0001709  85.3507 274.7680 15.08835496 90660,6917.894,95.438,540.941,538.577,0.0
51744.0,STARLINK-3452,PAYLOAD,2023-10-12 05:16:04,15.08847968,0.0001795,53.2176,307.2455,84.9972,275.1225,0.00063694,9.866e-05,0.0,0 STARLINK-3452,1 51744U 22016AG  23285.21950159  .00009866  00000-0  63694-3 0  9994,2 51744  53.2176 307.2455 0001795  84.9972 275.1225 15.08847968 91857,6917.856,95.437,540.963,538.479,0.0
51744.0,STARLINK-3452,PAYLOAD,2023-10-12 08:26:51,15.08857109,0.0001806,53.2174,306.6504,84.4434,275.6764,0.00094191,0.00014741,0.0,0 STARLINK-3452,1 51744U 22016AG  23285.35197999  .00014741  00000-0  94191-3 0  9998,2 51744  53.2174 306.6504 0001806  84.4434 275.6764 15.08857109 90810,6917.828,95.436,540.942,538.444,0.0
51744.0,STARLINK-3452,PAYLOAD,2023-10-12 17:59:09,15.08852457,0.0001783,53.2173,304.8643,82.4587,277.6608,0.00051238,7.879e-05,0.0,0 STARLINK-3452,1 51744U 22016AG  23285.74941921  .00007879  00000-0  51238-3 0  9992,2 51744  53.2173 304.8643 0001783  82.4587 277.6608 15.08852457 90870,6917.842,95.437,540.941,538.474,0.0
51744.0,STARLINK-3452,PAYLOAD,2023-10-13 05:06:51,15.08845572,0.0002065,53.2183,302.7866,99.5992,260.5234,0.00017326,2.471e-05,0.0,0 STARLINK-3452,1 51744U 22016AG  23286.21309993  .00002471  00000-0  17326-3 0  9995,2 51744  53.2183 302.7866 0002065  99.5992 260.5234 15.08845572 92001,6917.863,95.437,541.157,538.3,0.0
51744.0,STARLINK-3452,PAYLOAD,2023-10-13 08:17:38,15.08851228,0.0001798,53.2171,302.19,91.715,268.4048,0.00038116,5.785e-05,0.0,0 STARLINK-3452,1 51744U 22016AG  23286.34557873  .00005785  00000-0  38116-3 0  9992,2 51744  53.2171 302.1900 0001798  91.7150 268.4048 15.08851228 90961,6917.846,95.437,540.955,538.467,0.0
51744.0,STARLINK-3452,PAYLOAD,2023-10-13 17:49:56,15.08849387,0.0001699,53.2165,300.4056,88.2302,271.8885,0.00068895,0.00010696,0.0,0 STARLINK-3452,1 51744U 22016AG  23286.74301937  .00010696  00000-0  68895-3 0  9998,2 51744  53.2165 300.4056 0001699  88.2302 271.8885 15.08849387 91025,6917.852,95.437,540.892,538.541,0.0
51744.0,STARLINK-3452,PAYLOAD,2023-10-14 04:57:38,15.08841524,0.0001929,53.2169,298.325,100.5221,259.5988,0.00017015,2.421e-05,0.0,0 STARLINK-3452,1 51744U 22016AG  23287.20670019  .00002421  00000-0  17015-3 0  9995,2 51744  53.2169 298.3250 0001929 100.5221 259.5988 15.08841524 92151,6917.876,95.437,541.075,538.406,0.0
51744.0,STARLINK-3452,PAYLOAD,2023-10-14 08:08:25,15.08845149,0.0001865,53.217,297.7306,93.6757,266.4448,0.00015782,2.225e-05,0.0,0 STARLINK-3452,1 51744U 22016AG  23287.33917921  .00002225  00000-0  15782-3 0  9996,2 51744  53.2170 297.7306 0001865  93.6757 266.4448 15.08845149 91113,6917.865,95.437,541.02,538.439,0.0
51744.0,STARLINK-3452,PAYLOAD,2023-10-14 17:40:44,15.0883773,0.0001715,53.2161,295.9451,89.8299,270.289,8.8841e-05,1.126e-05,0.0,0 STARLINK-3452,1 51744U 22016AG  23287.73662277  .00001126  00000-0  88841-4 0  9997,2 51744  53.2161 295.9451 0001715  89.8299 270.2890 15.08837730 92231,6917.887,95.438,540.939,538.566,0.0
51744.0,STARLINK-3452,PAYLOAD,2023-10-15 04:48:26,15.08826693,0.0002311,53.2168,293.8619,85.2618,274.8638,-8.104e-05,-1.577e-05,0.0,0 STARLINK-3452,1 51744U 22016AG  23288.20031156 -.00001577  00000-0 -81040-4 0  9992,2 51744  53.2168 293.8619 0002311  85.2618 274.8638 15.08826693 92303,6917.921,95.438,541.385,538.187,0.0
51744.0,STARLINK-3452,PAYLOAD,2023-10-15 07:59:13,15.08826943,0.0001632,53.2163,293.2682,88.8367,271.2812,-7.9494e-05,-1.552e-05,0.0,0 STARLINK-3452,1 51744U 22016AG  23288.33279152 -.00001552  00000-0 -79494-4 0  9999,2 51744  53.2163 293.2682 0001632  88.8367 271.2812 15.08826943 91264,6917.92,95.438,540.914,538.656,0.0
51744.0,STARLINK-3452,PAYLOAD,2023-10-15 17:31:32,15.08836196,0.0001713,53.2172,291.4846,91.9639,268.1549,0.00017079,2.431e-05,0.0,0 STARLINK-3452,1 51744U 22016AG  23288.73023152  .00002431  00000-0  17079-3 0  9995,2 51744  53.2172 291.4846 0001713  91.9639 268.1549 15.08836196 92380,6917.892,95.438,540.942,538.572,0.0
51744.0,STARLINK-3452,PAYLOAD,2023-10-16 07:49:59,15.08864266,0.0001481,53.2158,288.8069,93.9486,266.1675,0.0012758,0.00020088,0.0,0 STARLINK-3452,1 51744U 22016AG  23289.32638775  .00020088  00000-0  12758-2 0  9990,2 51744  53.2158 288.8069 0001481  93.9486 266.1675 15.08864266 92472,6917.806,95.436,540.696,538.647,0.0
51744.0,STARLINK-3452,PAYLOAD,2023-10-17 09:16:10,15.08854339,0.0001642,53.2163,284.048,90.9457,269.1723,0.00064839,0.0001005,0.0,0 STARLINK-3452,1 51744U 22016AG  23290.38622689  .00010050  00000-0  64839-3 0  9991,2 51744  53.2163 284.0480 0001642  90.9457 269.1723 15.08854339 92632,6917.837,95.437,540.837,538.566,0.0
51744.0,STARLINK-3452,PAYLOAD,2023-10-18 02:45:24,15.08854812,0.0001724,53.217,280.7774,94.3872,265.7317,0.00086846,0.00013566,0.0,0 STARLINK-3452,1 51744U 22016AG  23291.11486768  .00013566  00000-0  86846-3 0  9996,2 51744  53.2170 280.7774 0001724  94.3872 265.7317 15.08854812 91680,6917.835,95.437,540.893,538.507,0.0
51744.0,STARLINK-3452,PAYLOAD,2023-10-18 05:56:10,15.08850158,0.0001587,53.2167,280.183,93.048,267.0693,0.00055836,8.612e-05,0.0,0 STARLINK-3452,1 51744U 22016AG  23291.24734714  .00008612  00000-0  55836-3 0  9998,2 51744  53.2167 280.1830 0001587  93.0480 267.0693 15.08850158 92762,6917.849,95.437,540.812,538.616,0.0
51744.0,STARLINK-3452,PAYLOAD,2023-10-19 04:11:34,15.08855523,0.0001574,53.2174,276.0189,102.1936,257.9233,0.00073755,0.00011475,0.0,0 STARLINK-3452,1 51744U 22016AG  23292.17470492  .00011475  00000-0  73755-3 0  9992,2 51744  53.2174 276.0189 0001574 102.1936 257.9233 15.08855523 92900,6917.833,95.437,540.787,538.609,0.0
51744.0,STARLINK-3452,PAYLOAD,2023-10-19 08:57:43,15.088635,0.0001629,53.2172,275.1266,100.6842,259.4334,0.00099233,0.0001555,0.0,0 STARLINK-3452,1 51744U 22016AG  23292.37342261  .00015550  00000-0  99233-3 0  9993,2 51744  53.2172 275.1266 0001629 100.6842 259.4334 15.08863500 91872,6917.809,95.436,540.8,538.547,0.0
51744.0,STARLINK-3452,PAYLOAD,2023-10-20 04:02:21,15.08839934,0.0001767,53.2177,271.5578,107.9758,252.1427,0.00043561,6.651e-05,0.0,0 STARLINK-3452,1 51744U 22016AG  23293.16830725  .00006651  00000-0  43561-3 0  9993,2 51744  53.2177 271.5578 0001767 107.9758 252.1427 15.08839934 93051,6917.881,95.438,540.968,538.523,0.0
51744.0,STARLINK-3452,PAYLOAD,2023-10-20 08:48:31,15.08842062,0.0001721,53.2179,270.6653,103.906,256.2124,0.00029178,4.359e-05,0.0,0 STARLINK-3452,1 51744U 22016AG  23293.36702766  .00004359  00000-0  29178-3 0  9999,2 51744  53.2179 270.6653 0001721 103.9060 256.2124 15.08842062 92020,6917.874,95.437,540.93,538.549,0.0
51744.0,STARLINK-3452,PAYLOAD,2023-10-21 02:17:46,15.08832747,0.00019,53.2177,267.3915,112.5824,247.537,8.5045e-05,1.065e-05,0.0,0 STARLINK-3452,1 51744U 22016AG  23294.09567418  .00001065  00000-0  85045-4 0  9990,2 51744  53.2177 267.3915 0001900 112.5824 247.5370 15.08832747 93199,6917.903,95.438,541.082,538.453,0.0
51744.0,STARLINK-3452,PAYLOAD,2023-10-21 05:28:32,15.08833702,0.000169,53.2179,266.7961,104.818,255.3,0.00013223,1.817e-05,0.0,0 STARLINK-3452,1 51744U 22016AG  23294.22815587  .00001817  00000-0  13223-3 0  9991,2 51744  53.2179 266.7961 0001690 104.8180 255.3000 15.08833702 92154,6917.9,95.438,540.934,538.596,0.0
51744.0,STARLINK-3452,PAYLOAD,2023-10-21 22:57:46,15.08849441,0.0001478,53.2179,263.5307,90.5017,269.6144,0.00054857,8.456e-05,0.0,0 STARLINK-3452,1 51744U 22016AG  23294.95679368  .00008456  00000-0  54857-3 0  9990,2 51744  53.2179 263.5307 0001478  90.5017 269.6144 15.08849441 92263,6917.852,95.437,540.739,538.694,0.0
51744.0,STARLINK-3452,PAYLOAD,2023-10-22 03:43:56,15.08860748,0.0001528,53.2178,262.6405,94.3923,265.7244,0.00075446,0.00011746,0.0,0 STARLINK-3452,1 51744U 22016AG  23295.15551036  .00011746  00000-0  75446-3 0  9997,2 51744  53.2178 262.6405 0001528  94.3923 265.7244 15.08860748 93357,6917.817,95.436,540.739,538.625,0.0
